{
    "links": {
        "self": "http://www.neowsapp.com/rest/v1/neo/3739965?api_key=iIulBulltgU6a56xZRHN4H3l9WmuAYTsLGpBGhQ2"
    },
    "id": "3739965",
    "neo_reference_id": "3739965",
    "name": "(2016 AQ164)",
    "designation": "2016 AQ164",
    "nasa_jpl_url": "http://ssd.jpl.nasa.gov/sbdb.cgi?sstr=3739965",
    "absolute_magnitude_h": 29.8,
    "estimated_diameter": {
        "kilometers": {
            "estimated_diameter_min": 0.002914439,
            "estimated_diameter_max": 0.0065168838
        },
        "meters": {
            "estimated_diameter_min": 2.9144390453,
            "estimated_diameter_max": 6.5168838217
        },
        "miles": {
            "estimated_diameter_min": 0.0018109479,
            "estimated_diameter_max": 0.0040494026
        },
        "feet": {
            "estimated_diameter_min": 9.5618081975,
            "estimated_diameter_max": 21.3808531175
        }
    },
    "is_potentially_hazardous_asteroid": false,
    "close_approach_data": [
        {
            "close_approach_date": "2016-01-10",
            "close_approach_date_full": "2016-Jan-10 07:07",
            "epoch_date_close_approach": 1452409620000,
            "relative_velocity": {
                "kilometers_per_second": "14.1763842796",
                "kilometers_per_hour": "51034.9834064178",
                "miles_per_hour": "31711.1539949489"
            },
            "miss_distance": {
                "astronomical": "0.0012528383",
                "lunar": "0.4873540987",
                "kilometers": "187421.941134421",
                "miles": "116458.5939641698"
            },
            "orbiting_body": "Moon"
        },
        {
            "close_approach_date": "2016-01-10",
            "close_approach_date_full": "2016-Jan-10 14:15",
            "epoch_date_close_approach": 1452435300000,
            "relative_velocity": {
                "kilometers_per_second": "14.1574682339",
                "kilometers_per_hour": "50966.8856421959",
                "miles_per_hour": "31668.8406925078"
            },
            "miss_distance": {
                "astronomical": "0.0006979973",
                "lunar": "0.2715209497",
                "kilometers": "104418.909345751",
                "miles": "64882.9016073238"
            },
            "orbiting_body": "Earth"
        }
    ],
    "orbital_data": {
        "orbit_id": "3",
        "orbit_determination_date": "2017-04-06 08:29:13",
        "first_observation_date": "2016-01-12",
        "last_observation_date": "2016-01-14",
        "data_arc_in_days": 2,
        "observations_used": 11,
        "orbit_uncertainty": "8",
        "minimum_orbit_intersection": ".000666858",
        "jupiter_tisserand_invariant": "3.701",
        "epoch_osculation": "2457400.5",
        "eccentricity": ".5777302488746625",
        "semi_major_axis": "1.916874278904693",
        "inclination": "5.298539183255467",
        "ascending_node_longitude": "289.9026877938601",
        "orbital_period": "969.3684302433046",
        "perihelion_distance": ".8094380246916455",
        "perihelion_argument": "120.7082951716054",
        "aphelion_distance": "3.02431053311774",
        "perihelion_time": "2457358.364532246451",
        "mean_anomaly": "15.64809407654258",
        "mean_motion": ".3713758244733043",
        "equinox": "J2000",
        "orbit_class": {
            "orbit_class_type": "APO",
            "orbit_class_description": "Near-Earth asteroid orbits which cross the Earth’s orbit similar to that of 1862 Apollo",
            "orbit_class_range": "a (semi-major axis) > 1.0 AU; q (perihelion) < 1.017 AU"
        }
    },
    "is_sentry_object": false
}